{
 "type": "FeatureCollection",
 "features": [
  {
   "type": "Feature",
   "geometry": {
    "type": "Polygon",
    "coordinates": [
     [
      [
       72.8909923,
       19.0753832
      ],
      [
       72.8910153,
       19.0753897
      ],
      [
       72.8919208,
       19.0756093
      ],
      [
       72.8919219,
       19.0756096
      ],
      [
       72.8928283,
       19.075826
      ],
      [
       72.8929022,
       19.0758342
      ],
      [
       72.8929758,
       19.075824
      ],
      [
       72.8930442,
       19.0757961
      ],
      [
       72.8931026,
       19.0757525
      ],
      [
       72.8931471,
       19.0756961
      ],
      [
       72.8931746,
       19.0756307
      ],
      [
       72.8931832,
       19.0755608
      ],
      [
       72.8931724,
       19.0754912
      ],
      [
       72.893143,
       19.0754266
      ],
      [
       72.8930968,
       19.0753714
      ],
      [
       72.8930371,
       19.0753294
      ],
      [
       72.8929679,
       19.0753034
      ],
      [
       72.8920621,
       19.0750871
      ],
      [
       72.8911687,
       19.0748705
      ],
      [
       72.8902974,
       19.0745832
      ],
      [
       72.8902245,
       19.0745689
      ],
      [
       72.8901502,
       19.074573
      ],
      [
       72.8900795,
       19.074595
      ],
      [
       72.8900173,
       19.0746336
      ],
      [
       72.8899677,
       19.0746861
      ],
      [
       72.8899343,
       19.0747489
      ],
      [
       72.8899191,
       19.0748178
      ],
      [
       72.8899234,
       19.0748881
      ],
      [
       72.8899467,
       19.0749549
      ],
      [
       72.8899875,
       19.0750137
      ],
      [
       72.8900431,
       19.0750605
      ],
      [
       72.8901096,
       19.0750922
      ],
      [
       72.8909923,
       19.0753832
      ]
     ]
    ]
   },
   "properties": {
    "drainId": "1",
    "name": "Canal section 1",
    "waterway": "canal",
    "osmId": null,
    "lengthM": 294.7,
    "widthM": 3.5,
    "depthM": 0.8,
    "bufferM": 30.0,
    "claimedTonnes": 48,
    "plausibleMaxTonnes": 1386.3,
    "synthetic": true
   }
  },
  {
   "type": "Feature",
   "geometry": {
    "type": "Polygon",
    "coordinates": [
     [
      [
       72.8922731,
       19.079969
      ],
      [
       72.8922818,
       19.0799672
      ],
      [
       72.8931545,
       19.079771
      ],
      [
       72.8932016,
       19.0797562
      ],
      [
       72.8940251,
       19.0794201
      ],
      [
       72.894089,
       19.079384
      ],
      [
       72.8941408,
       19.0793335
      ],
      [
       72.894177,
       19.0792721
      ],
      [
       72.8941952,
       19.0792039
      ],
      [
       72.8941941,
       19.0791335
      ],
      [
       72.8941738,
       19.0790659
      ],
      [
       72.8941356,
       19.0790055
      ],
      [
       72.8940822,
       19.0789565
      ],
      [
       72.8940172,
       19.0789222
      ],
      [
       72.893945,
       19.078905
      ],
      [
       72.8938706,
       19.0789061
      ],
      [
       72.8937989,
       19.0789253
      ],
      [
       72.8929983,
       19.0792521
      ],
      [
       72.8921541,
       19.0794418
      ],
      [
       72.8912798,
       19.0796113
      ],
      [
       72.8912095,
       19.0796343
      ],
      [
       72.8911478,
       19.0796737
      ],
      [
       72.8910991,
       19.0797269
      ],
      [
       72.8910665,
       19.0797902
      ],
      [
       72.8910525,
       19.0798593
      ],
      [
       72.8910578,
       19.0799294
      ],
      [
       72.8910821,
       19.0799959
      ],
      [
       72.8911238,
       19.0800542
      ],
      [
       72.8911801,
       19.0801003
      ],
      [
       72.891247,
       19.080131
      ],
      [
       72.8913201,
       19.0801443
      ],
      [
       72.8913944,
       19.0801393
      ],
      [
       72.8922731,
       19.079969
      ]
     ]
    ]
   },
   "properties": {
    "drainId": "2",
    "name": "Ditch section 2",
    "waterway": "ditch",
    "osmId": null,
    "lengthM": 282.8,
    "widthM": 3.5,
    "depthM": 1.2,
    "bufferM": 30.0,
    "claimedTonnes": 56,
    "plausibleMaxTonnes": 1995.4,
    "synthetic": true
   }
  },
  {
   "type": "Feature",
   "geometry": {
    "type": "Polygon",
    "coordinates": [
     [
      [
       72.8877038,
       19.0859604
      ],
      [
       72.8877254,
       19.0859844
      ],
      [
       72.8882421,
       19.0864934
      ],
      [
       72.8886364,
       19.0870923
      ],
      [
       72.8886836,
       19.0871466
      ],
      [
       72.8887441,
       19.0871876
      ],
      [
       72.8888138,
       19.0872124
      ],
      [
       72.8888879,
       19.0872192
      ],
      [
       72.8889613,
       19.0872078
      ],
      [
       72.8890291,
       19.0871787
      ],
      [
       72.8890867,
       19.0871341
      ],
      [
       72.88913,
       19.0870769
      ],
      [
       72.8891562,
       19.087011
      ],
      [
       72.8891635,
       19.086941
      ],
      [
       72.8891514,
       19.0868716
      ],
      [
       72.8891206,
       19.0868075
      ],
      [
       72.8887106,
       19.0861847
      ],
      [
       72.8886743,
       19.0861405
      ],
      [
       72.8881485,
       19.0856226
      ],
      [
       72.8876904,
       19.0850503
      ],
      [
       72.8876381,
       19.0850002
      ],
      [
       72.8875739,
       19.0849646
      ],
      [
       72.8875022,
       19.084946
      ],
      [
       72.8874277,
       19.0849455
      ],
      [
       72.8873557,
       19.0849632
      ],
      [
       72.887291,
       19.084998
      ],
      [
       72.887238,
       19.0850474
      ],
      [
       72.8872003,
       19.0851081
      ],
      [
       72.8871805,
       19.0851759
      ],
      [
       72.88718,
       19.0852462
      ],
      [
       72.8871988,
       19.0853143
      ],
      [
       72.8872356,
       19.0853755
      ],
      [
       72.8877038,
       19.0859604
      ]
     ]
    ]
   },
   "properties": {
    "drainId": "3",
    "name": "Ditch section 3",
    "waterway": "ditch",
    "osmId": null,
    "lengthM": 244.7,
    "widthM": 3.0,
    "depthM": 0.8,
    "bufferM": 30.0,
    "claimedTonnes": 126,
    "plausibleMaxTonnes": 986.6,
    "synthetic": true
   }
  },
  {
   "type": "Feature",
   "geometry": {
    "type": "Polygon",
    "coordinates": [
     [
      [
       72.8808142,
       19.080584
      ],
      [
       72.880816,
       19.0805854
      ],
      [
       72.8814085,
       19.0810538
      ],
      [
       72.8819559,
       19.081569
      ],
      [
       72.882015,
       19.0816118
      ],
      [
       72.8820838,
       19.0816385
      ],
      [
       72.8821577,
       19.0816476
      ],
      [
       72.8822314,
       19.0816383
      ],
      [
       72.8823002,
       19.0816112
      ],
      [
       72.8823591,
       19.0815683
      ],
      [
       72.8824043,
       19.0815124
      ],
      [
       72.8824327,
       19.0814473
      ],
      [
       72.8824423,
       19.0813776
      ],
      [
       72.8824324,
       19.0813078
      ],
      [
       72.8824038,
       19.0812429
      ],
      [
       72.8823583,
       19.0811872
      ],
      [
       72.8818022,
       19.0806637
      ],
      [
       72.881784,
       19.0806479
      ],
      [
       72.8811829,
       19.0801727
      ],
      [
       72.880586,
       19.0796927
      ],
      [
       72.8805235,
       19.0796545
      ],
      [
       72.8804526,
       19.0796329
      ],
      [
       72.8803783,
       19.0796294
      ],
      [
       72.8803055,
       19.0796441
      ],
      [
       72.8802392,
       19.0796762
      ],
      [
       72.880184,
       19.0797234
      ],
      [
       72.8801436,
       19.0797824
      ],
      [
       72.8801207,
       19.0798494
      ],
      [
       72.880117,
       19.0799196
      ],
      [
       72.8801326,
       19.0799884
      ],
      [
       72.8801665,
       19.0800511
      ],
      [
       72.8802164,
       19.0801033
      ],
      [
       72.8808142,
       19.080584
      ]
     ]
    ]
   },
   "properties": {
    "drainId": "4",
    "name": "Ditch section 4",
    "waterway": "ditch",
    "osmId": null,
    "lengthM": 247.4,
    "widthM": 2.5,
    "depthM": 1.8,
    "bufferM": 30.0,
    "claimedTonnes": 60,
    "plausibleMaxTonnes": 1870.3,
    "synthetic": true
   }
  },
  {
   "type": "Feature",
   "geometry": {
    "type": "Polygon",
    "coordinates": [
     [
      [
       72.8784873,
       19.0820097
      ],
      [
       72.8784665,
       19.0820692
      ],
      [
       72.8782673,
       19.0829846
      ],
      [
       72.8782615,
       19.0830372
      ],
      [
       72.8782552,
       19.0839717
      ],
      [
       72.8782644,
       19.0840415
      ],
      [
       72.8782924,
       19.0841067
      ],
      [
       72.8783374,
       19.0841627
      ],
      [
       72.8783962,
       19.0842059
      ],
      [
       72.8784647,
       19.0842333
      ],
      [
       72.8785385,
       19.0842429
      ],
      [
       72.8786123,
       19.0842341
      ],
      [
       72.8786813,
       19.0842076
      ],
      [
       72.8787406,
       19.0841652
      ],
      [
       72.8787863,
       19.0841096
      ],
      [
       72.8788153,
       19.0840448
      ],
      [
       72.8788254,
       19.0839751
      ],
      [
       72.8788316,
       19.0830672
      ],
      [
       72.8790184,
       19.0822087
      ],
      [
       72.8794219,
       19.0813901
      ],
      [
       72.8794442,
       19.081323
      ],
      [
       72.8794475,
       19.0812527
      ],
      [
       72.8794313,
       19.081184
      ],
      [
       72.8793969,
       19.0811216
      ],
      [
       72.8793466,
       19.0810698
      ],
      [
       72.8792838,
       19.081032
      ],
      [
       72.8792128,
       19.0810109
      ],
      [
       72.8791384,
       19.0810078
      ],
      [
       72.8790658,
       19.0810231
      ],
      [
       72.8789998,
       19.0810556
      ],
      [
       72.8789449,
       19.0811032
      ],
      [
       72.8789049,
       19.0811625
      ],
      [
       72.8784873,
       19.0820097
      ]
     ]
    ]
   },
   "properties": {
    "drainId": "5",
    "name": "Drain section 5",
    "waterway": "drain",
    "osmId": null,
    "lengthM": 311.8,
    "widthM": 1.2,
    "depthM": 1.2,
    "bufferM": 30.0,
    "claimedTonnes": 44,
    "plausibleMaxTonnes": 754.3,
    "synthetic": true
   }
  },
  {
   "type": "Feature",
   "geometry": {
    "type": "Polygon",
    "coordinates": [
     [
      [
       72.8760027,
       19.084172
      ],
      [
       72.8760277,
       19.0842332
      ],
      [
       72.8767792,
       19.0855656
      ],
      [
       72.8774554,
       19.0869337
      ],
      [
       72.8774955,
       19.086993
      ],
      [
       72.8775504,
       19.0870405
      ],
      [
       72.8776165,
       19.0870729
      ],
      [
       72.8776891,
       19.0870881
      ],
      [
       72.8777635,
       19.087085
      ],
      [
       72.8778345,
       19.0870638
      ],
      [
       72.8778972,
       19.0870259
      ],
      [
       72.8779475,
       19.086974
      ],
      [
       72.8779818,
       19.0869116
      ],
      [
       72.8779979,
       19.0868429
      ],
      [
       72.8779946,
       19.0867726
      ],
      [
       72.8779722,
       19.0867055
      ],
      [
       72.8772928,
       19.085331
      ],
      [
       72.877286,
       19.0853183
      ],
      [
       72.8765474,
       19.0840088
      ],
      [
       72.8761653,
       19.0825693
      ],
      [
       72.8761379,
       19.0825039
      ],
      [
       72.8760935,
       19.0824474
      ],
      [
       72.8760352,
       19.0824037
      ],
      [
       72.8759669,
       19.0823757
      ],
      [
       72.8758933,
       19.0823654
      ],
      [
       72.8758193,
       19.0823735
      ],
      [
       72.8757501,
       19.0823994
      ],
      [
       72.8756903,
       19.0824413
      ],
      [
       72.8756441,
       19.0824964
      ],
      [
       72.8756145,
       19.082561
      ],
      [
       72.8756036,
       19.0826306
      ],
      [
       72.8756121,
       19.0827005
      ],
      [
       72.8760027,
       19.084172
      ]
     ]
    ]
   },
   "properties": {
    "drainId": "6",
    "name": "Drain section 6",
    "waterway": "drain",
    "osmId": null,
    "lengthM": 506.1,
    "widthM": 1.8,
    "depthM": 1.5,
    "bufferM": 30.0,
    "claimedTonnes": 70,
    "plausibleMaxTonnes": 2295.7,
    "synthetic": true
   }
  },
  {
   "type": "Feature",
   "geometry": {
    "type": "Polygon",
    "coordinates": [
     [
      [
       72.8709804,
       19.0877021
      ],
      [
       72.8695516,
       19.0882811
      ],
      [
       72.8680785,
       19.0888172
      ],
      [
       72.8680132,
       19.0888508
      ],
      [
       72.8679592,
       19.0888993
      ],
      [
       72.8679204,
       19.0889593
      ],
      [
       72.8678993,
       19.0890268
      ],
      [
       72.8678974,
       19.0890971
      ],
      [
       72.8679149,
       19.0891655
      ],
      [
       72.8679505,
       19.0892273
      ],
      [
       72.8680018,
       19.0892783
      ],
      [
       72.8680653,
       19.089315
      ],
      [
       72.8681367,
       19.0893349
      ],
      [
       72.8682111,
       19.0893367
      ],
      [
       72.8682835,
       19.0893202
      ],
      [
       72.8697616,
       19.0887823
      ],
      [
       72.8697715,
       19.0887785
      ],
      [
       72.8712272,
       19.0881885
      ],
      [
       72.8712694,
       19.0881672
      ],
      [
       72.8726002,
       19.0873556
      ],
      [
       72.872657,
       19.0873101
      ],
      [
       72.8726993,
       19.0872522
      ],
      [
       72.8727243,
       19.087186
      ],
      [
       72.8727304,
       19.0871159
      ],
      [
       72.8727171,
       19.0870467
      ],
      [
       72.8726852,
       19.0869831
      ],
      [
       72.872637,
       19.0869295
      ],
      [
       72.8725758,
       19.0868894
      ],
      [
       72.8725057,
       19.0868658
      ],
      [
       72.8724315,
       19.08686
      ],
      [
       72.8723583,
       19.0868727
      ],
      [
       72.872291,
       19.0869028
      ],
      [
       72.8709804,
       19.0877021
      ]
     ]
    ]
   },
   "properties": {
    "drainId": "7",
    "name": "Drain section 7",
    "waterway": "drain",
    "osmId": null,
    "lengthM": 499.3,
    "widthM": 2.0,
    "depthM": 1.5,
    "bufferM": 30.0,
    "claimedTonnes": 52,
    "plausibleMaxTonnes": 2516.5,
    "synthetic": true
   }
  },
  {
   "type": "Feature",
   "geometry": {
    "type": "Polygon",
    "coordinates": [
     [
      [
       72.8643216,
       19.0851919
      ],
      [
       72.8642906,
       19.0852766
      ],
      [
       72.8640497,
       19.086639
      ],
      [
       72.8640487,
       19.0866453
      ],
      [
       72.863842,
       19.0880127
      ],
      [
       72.8638412,
       19.088083
      ],
      [
       72.8638597,
       19.0881512
      ],
      [
       72.8638962,
       19.0882125
      ],
      [
       72.8639482,
       19.0882628
      ],
      [
       72.8640123,
       19.0882986
      ],
      [
       72.864084,
       19.0883176
      ],
      [
       72.8641584,
       19.0883184
      ],
      [
       72.8642305,
       19.0883009
      ],
      [
       72.8642954,
       19.0882664
      ],
      [
       72.8643486,
       19.0882172
      ],
      [
       72.8643865,
       19.0881567
      ],
      [
       72.8644066,
       19.0880889
      ],
      [
       72.8646128,
       19.0867247
      ],
      [
       72.8648452,
       19.0854102
      ],
      [
       72.8655226,
       19.0842377
      ],
      [
       72.8655494,
       19.0841721
      ],
      [
       72.8655574,
       19.0841022
      ],
      [
       72.8655459,
       19.0840327
      ],
      [
       72.8655158,
       19.0839683
      ],
      [
       72.8654691,
       19.0839135
      ],
      [
       72.8654089,
       19.0838721
      ],
      [
       72.8653395,
       19.0838467
      ],
      [
       72.8652655,
       19.0838392
      ],
      [
       72.8651919,
       19.08385
      ],
      [
       72.8651239,
       19.0838785
      ],
      [
       72.8650659,
       19.0839226
      ],
      [
       72.865022,
       19.0839795
      ],
      [
       72.8643216,
       19.0851919
      ]
     ]
    ]
   },
   "properties": {
    "drainId": "8",
    "name": "Ditch section 8",
    "waterway": "ditch",
    "osmId": null,
    "lengthM": 460.8,
    "widthM": 2.5,
    "depthM": 0.8,
    "bufferM": 30.0,
    "claimedTonnes": 55,
    "plausibleMaxTonnes": 1548.3,
    "synthetic": true
   }
  },
  {
   "type": "Feature",
   "geometry": {
    "type": "Polygon",
    "coordinates": [
     [
      [
       72.8652417,
       19.0799483
      ],
      [
       72.8651834,
       19.0800127
      ],
      [
       72.8648228,
       19.0805692
      ],
      [
       72.8644529,
       19.0811203
      ],
      [
       72.8644216,
       19.0811842
      ],
      [
       72.8644088,
       19.0812535
      ],
      [
       72.8644154,
       19.0813235
      ],
      [
       72.864441,
       19.0813896
      ],
      [
       72.8644838,
       19.0814472
      ],
      [
       72.864541,
       19.0814923
      ],
      [
       72.8646085,
       19.0815219
      ],
      [
       72.8646818,
       19.081534
      ],
      [
       72.864756,
       19.0815277
      ],
      [
       72.8648259,
       19.0815035
      ],
      [
       72.8648868,
       19.081463
      ],
      [
       72.8649345,
       19.0814091
      ],
      [
       72.8653056,
       19.0808562
      ],
      [
       72.865308,
       19.0808526
      ],
      [
       72.865646,
       19.0803309
      ],
      [
       72.866139,
       19.0799342
      ],
      [
       72.8661889,
       19.079882
      ],
      [
       72.8662228,
       19.0798193
      ],
      [
       72.8662383,
       19.0797505
      ],
      [
       72.8662346,
       19.0796803
      ],
      [
       72.8662117,
       19.0796133
      ],
      [
       72.8661712,
       19.0795543
      ],
      [
       72.866116,
       19.0795071
      ],
      [
       72.8660497,
       19.0794751
      ],
      [
       72.8659769,
       19.0794604
      ],
      [
       72.8659026,
       19.0794639
      ],
      [
       72.8658317,
       19.0794856
      ],
      [
       72.8657692,
       19.0795238
      ],
      [
       72.8652417,
       19.0799483
      ]
     ]
    ]
   },
   "properties": {
    "drainId": "9",
    "name": "Drain section 9",
    "waterway": "drain",
    "osmId": null,
    "lengthM": 218.4,
    "widthM": 3.0,
    "depthM": 1.2,
    "bufferM": 30.0,
    "claimedTonnes": 58,
    "plausibleMaxTonnes": 1320.9,
    "synthetic": true
   }
  },
  {
   "type": "Feature",
   "geometry": {
    "type": "Polygon",
    "coordinates": [
     [
      [
       72.8638575,
       19.0763909
      ],
      [
       72.8624916,
       19.0765628
      ],
      [
       72.8611012,
       19.0765771
      ],
      [
       72.8610275,
       19.0765871
      ],
      [
       72.860959,
       19.0766147
      ],
      [
       72.8609005,
       19.0766581
      ],
      [
       72.8608558,
       19.0767144
      ],
      [
       72.8608281,
       19.0767797
      ],
      [
       72.8608192,
       19.0768495
      ],
      [
       72.8608297,
       19.0769192
      ],
      [
       72.8608589,
       19.0769839
      ],
      [
       72.8609049,
       19.0770392
      ],
      [
       72.8609644,
       19.0770814
      ],
      [
       72.8610335,
       19.0771077
      ],
      [
       72.8611074,
       19.0771161
      ],
      [
       72.8625151,
       19.0771016
      ],
      [
       72.8625496,
       19.0770992
      ],
      [
       72.8639452,
       19.0769236
      ],
      [
       72.8639699,
       19.0769195
      ],
      [
       72.8653437,
       19.0766289
      ],
      [
       72.8654136,
       19.0766047
      ],
      [
       72.8654745,
       19.0765642
      ],
      [
       72.8655222,
       19.0765102
      ],
      [
       72.8655535,
       19.0764464
      ],
      [
       72.8655663,
       19.0763771
      ],
      [
       72.8655597,
       19.076307
      ],
      [
       72.8655341,
       19.076241
      ],
      [
       72.8654912,
       19.0761834
      ],
      [
       72.8654341,
       19.0761383
      ],
      [
       72.8653666,
       19.0761087
      ],
      [
       72.8652933,
       19.0760966
      ],
      [
       72.8652191,
       19.0761029
      ],
      [
       72.8638575,
       19.0763909
      ]
     ]
    ]
   },
   "properties": {
    "drainId": "10",
    "name": "Ditch section 10",
    "waterway": "ditch",
    "osmId": null,
    "lengthM": 443.8,
    "widthM": 3.5,
    "depthM": 0.8,
    "bufferM": 30.0,
    "claimedTonnes": 46,
    "plausibleMaxTonnes": 2087.6,
    "synthetic": true
   }
  },
  {
   "type": "Feature",
   "geometry": {
    "type": "Polygon",
    "coordinates": [
     [
      [
       72.8623632,
       19.0712692
      ],
      [
       72.8623507,
       19.0712683
      ],
      [
       72.8613904,
       19.0712241
      ],
      [
       72.8613018,
       19.0712332
      ],
      [
       72.860374,
       19.0714713
      ],
      [
       72.8603053,
       19.0714985
      ],
      [
       72.8602464,
       19.0715415
      ],
      [
       72.8602013,
       19.0715974
      ],
      [
       72.860173,
       19.0716625
      ],
      [
       72.8601635,
       19.0717323
      ],
      [
       72.8601735,
       19.071802
      ],
      [
       72.8602022,
       19.0718669
      ],
      [
       72.8602477,
       19.0719226
      ],
      [
       72.860307,
       19.0719652
      ],
      [
       72.8603758,
       19.0719919
      ],
      [
       72.8604497,
       19.0720009
      ],
      [
       72.8605234,
       19.0719915
      ],
      [
       72.8614077,
       19.0717645
      ],
      [
       72.8623167,
       19.0718064
      ],
      [
       72.8632677,
       19.0718898
      ],
      [
       72.8633421,
       19.0718871
      ],
      [
       72.8634132,
       19.0718663
      ],
      [
       72.8634762,
       19.0718289
      ],
      [
       72.8635268,
       19.0717772
      ],
      [
       72.8635615,
       19.071715
      ],
      [
       72.863578,
       19.0716464
      ],
      [
       72.8635752,
       19.0715761
      ],
      [
       72.8635532,
       19.0715089
      ],
      [
       72.8635135,
       19.0714494
      ],
      [
       72.8634589,
       19.0714016
      ],
      [
       72.8633931,
       19.0713688
      ],
      [
       72.8633205,
       19.0713532
      ],
      [
       72.8623632,
       19.0712692
      ]
     ]
    ]
   },
   "properties": {
    "drainId": "11",
    "name": "Drain section 11",
    "waterway": "drain",
    "osmId": null,
    "lengthM": 303.1,
    "widthM": 1.8,
    "depthM": 0.8,
    "bufferM": 30.0,
    "claimedTonnes": 85,
    "plausibleMaxTonnes": 733.3,
    "synthetic": true
   }
  },
  {
   "type": "Feature",
   "geometry": {
    "type": "Polygon",
    "coordinates": [
     [
      [
       72.8696899,
       19.0685605
      ],
      [
       72.8688094,
       19.067927
      ],
      [
       72.8687783,
       19.0679075
      ],
      [
       72.8678134,
       19.0673857
      ],
      [
       72.8677445,
       19.067359
      ],
      [
       72.8676707,
       19.0673501
      ],
      [
       72.8675969,
       19.0673596
      ],
      [
       72.8675283,
       19.0673867
      ],
      [
       72.8674694,
       19.0674298
      ],
      [
       72.8674243,
       19.0674858
      ],
      [
       72.8673961,
       19.0675509
      ],
      [
       72.8673866,
       19.0676206
      ],
      [
       72.8673967,
       19.0676904
      ],
      [
       72.8674254,
       19.0677552
      ],
      [
       72.8674709,
       19.0678109
      ],
      [
       72.8675302,
       19.0678535
      ],
      [
       72.8684788,
       19.0683665
      ],
      [
       72.8693485,
       19.0689922
      ],
      [
       72.8693567,
       19.0689979
      ],
      [
       72.8702647,
       19.0696041
      ],
      [
       72.8703306,
       19.0696369
      ],
      [
       72.8704032,
       19.0696524
      ],
      [
       72.8704775,
       19.0696496
      ],
      [
       72.8705486,
       19.0696287
      ],
      [
       72.8706116,
       19.0695912
      ],
      [
       72.8706621,
       19.0695395
      ],
      [
       72.8706967,
       19.0694772
      ],
      [
       72.8707132,
       19.0694086
      ],
      [
       72.8707102,
       19.0693383
      ],
      [
       72.8706881,
       19.0692711
      ],
      [
       72.8706484,
       19.0692116
      ],
      [
       72.8705937,
       19.0691639
      ],
      [
       72.8696899,
       19.0685605
      ]
     ]
    ]
   },
   "properties": {
    "drainId": "12",
    "name": "Ditch section 12",
    "waterway": "ditch",
    "osmId": null,
    "lengthM": 350.5,
    "widthM": 3.5,
    "depthM": 1.0,
    "bufferM": 30.0,
    "claimedTonnes": 62,
    "plausibleMaxTonnes": 2060.9,
    "synthetic": true
   }
  },
  {
   "type": "Feature",
   "geometry": {
    "type": "Polygon",
    "coordinates": [
     [
      [
       72.8742476,
       19.0705808
      ],
      [
       72.8741897,
       19.0705275
      ],
      [
       72.8733809,
       19.0699702
      ],
      [
       72.8727702,
       19.0692208
      ],
      [
       72.8727175,
       19.0691711
      ],
      [
       72.872653,
       19.069136
      ],
      [
       72.872581,
       19.069118
      ],
      [
       72.8725066,
       19.0691181
      ],
      [
       72.8724347,
       19.0691364
      ],
      [
       72.8723703,
       19.0691717
      ],
      [
       72.8723178,
       19.0692215
      ],
      [
       72.8722807,
       19.0692825
      ],
      [
       72.8722615,
       19.0693505
      ],
      [
       72.8722617,
       19.0694208
      ],
      [
       72.872281,
       19.0694888
      ],
      [
       72.8723184,
       19.0695496
      ],
      [
       72.872954,
       19.0703296
      ],
      [
       72.8730119,
       19.070383
      ],
      [
       72.8738207,
       19.0709403
      ],
      [
       72.8744315,
       19.0716897
      ],
      [
       72.8744842,
       19.0717393
      ],
      [
       72.8745488,
       19.0717744
      ],
      [
       72.8746207,
       19.0717925
      ],
      [
       72.8746952,
       19.0717923
      ],
      [
       72.874767,
       19.071774
      ],
      [
       72.8748314,
       19.0717387
      ],
      [
       72.874884,
       19.0716889
      ],
      [
       72.8749211,
       19.0716279
      ],
      [
       72.8749402,
       19.0715599
      ],
      [
       72.87494,
       19.0714895
      ],
      [
       72.8749206,
       19.0714216
      ],
      [
       72.8748833,
       19.0713607
      ],
      [
       72.8742476,
       19.0705808
      ]
     ]
    ]
   },
   "properties": {
    "drainId": "13",
    "name": "Canal section 13",
    "waterway": "canal",
    "osmId": null,
    "lengthM": 328.4,
    "widthM": 3.0,
    "depthM": 1.8,
    "bufferM": 30.0,
    "claimedTonnes": 50,
    "plausibleMaxTonnes": 2979.2,
    "synthetic": true
   }
  },
  {
   "type": "Feature",
   "geometry": {
    "type": "Polygon",
    "coordinates": [
     [
      [
       72.8777126,
       19.0722396
      ],
      [
       72.8779696,
       19.0717068
      ],
      [
       72.8779794,
       19.0716836
      ],
      [
       72.8781961,
       19.0710954
      ],
      [
       72.8782112,
       19.0710265
      ],
      [
       72.8782069,
       19.0709563
      ],
      [
       72.8781835,
       19.0708895
      ],
      [
       72.8781426,
       19.0708307
      ],
      [
       72.8780871,
       19.0707839
      ],
      [
       72.8780206,
       19.0707523
      ],
      [
       72.8779477,
       19.070738
      ],
      [
       72.8778734,
       19.0707421
      ],
      [
       72.8778027,
       19.0707642
      ],
      [
       72.8777405,
       19.0708028
      ],
      [
       72.8776909,
       19.0708553
      ],
      [
       72.8776575,
       19.0709182
      ],
      [
       72.8774451,
       19.0714946
      ],
      [
       72.8771773,
       19.07205
      ],
      [
       72.877155,
       19.0721208
      ],
      [
       72.8770548,
       19.0727364
      ],
      [
       72.8770531,
       19.0728068
      ],
      [
       72.8770708,
       19.0728751
      ],
      [
       72.8771067,
       19.0729368
      ],
      [
       72.8771581,
       19.0729876
      ],
      [
       72.8772218,
       19.0730241
      ],
      [
       72.8772932,
       19.0730438
      ],
      [
       72.8773677,
       19.0730453
      ],
      [
       72.87744,
       19.0730286
      ],
      [
       72.8775052,
       19.0729947
      ],
      [
       72.877559,
       19.0729461
      ],
      [
       72.8775976,
       19.0728859
      ],
      [
       72.8776184,
       19.0728184
      ],
      [
       72.8777126,
       19.0722396
      ]
     ]
    ]
   },
   "properties": {
    "drainId": "14",
    "name": "Drain section 14",
    "waterway": "drain",
    "osmId": null,
    "lengthM": 207.8,
    "widthM": 3.0,
    "depthM": 1.8,
    "bufferM": 30.0,
    "claimedTonnes": 192,
    "plausibleMaxTonnes": 1885.2,
    "synthetic": true
   }
  },
  {
   "type": "Feature",
   "geometry": {
    "type": "Polygon",
    "coordinates": [
     [
      [
       72.8806582,
       19.0613815
      ],
      [
       72.8806577,
       19.061378
      ],
      [
       72.8805349,
       19.0606277
      ],
      [
       72.8806615,
       19.0598778
      ],
      [
       72.8806635,
       19.0598075
      ],
      [
       72.8806462,
       19.0597391
      ],
      [
       72.8806108,
       19.0596772
      ],
      [
       72.8805596,
       19.0596261
      ],
      [
       72.8804962,
       19.0595893
      ],
      [
       72.8804248,
       19.0595693
      ],
      [
       72.8803504,
       19.0595674
      ],
      [
       72.880278,
       19.0595837
      ],
      [
       72.8802125,
       19.0596172
      ],
      [
       72.8801585,
       19.0596656
      ],
      [
       72.8801195,
       19.0597255
      ],
      [
       72.8800983,
       19.059793
      ],
      [
       72.8799647,
       19.0605846
      ],
      [
       72.8799645,
       19.0606682
      ],
      [
       72.8800938,
       19.0614587
      ],
      [
       72.8802124,
       19.0622507
      ],
      [
       72.8802323,
       19.0623185
      ],
      [
       72.8802702,
       19.0623791
      ],
      [
       72.8803233,
       19.0624284
      ],
      [
       72.8803881,
       19.062463
      ],
      [
       72.8804602,
       19.0624805
      ],
      [
       72.8805346,
       19.0624798
      ],
      [
       72.8806063,
       19.062461
      ],
      [
       72.8806705,
       19.0624252
      ],
      [
       72.8807226,
       19.062375
      ],
      [
       72.8807592,
       19.0623137
      ],
      [
       72.8807778,
       19.0622456
      ],
      [
       72.880777,
       19.0621753
      ],
      [
       72.8806582,
       19.0613815
      ]
     ]
    ]
   },
   "properties": {
    "drainId": "15",
    "name": "Drain section 15",
    "waterway": "drain",
    "osmId": null,
    "lengthM": 267.4,
    "widthM": 2.0,
    "depthM": 1.8,
    "bufferM": 30.0,
    "claimedTonnes": 54,
    "plausibleMaxTonnes": 1617.2,
    "synthetic": true
   }
  },
  {
   "type": "Feature",
   "geometry": {
    "type": "Polygon",
    "coordinates": [
     [
      [
       72.8852444,
       19.0635215
      ],
      [
       72.8859414,
       19.0629899
      ],
      [
       72.8859535,
       19.0629801
      ],
      [
       72.8866491,
       19.0623857
      ],
      [
       72.8866974,
       19.0623321
      ],
      [
       72.8867293,
       19.0622685
      ],
      [
       72.8867427,
       19.0621993
      ],
      [
       72.8867367,
       19.0621292
      ],
      [
       72.8867117,
       19.062063
      ],
      [
       72.8866694,
       19.0620051
      ],
      [
       72.8866127,
       19.0619595
      ],
      [
       72.8865455,
       19.0619293
      ],
      [
       72.8864722,
       19.0619166
      ],
      [
       72.886398,
       19.0619223
      ],
      [
       72.8863279,
       19.0619459
      ],
      [
       72.8862667,
       19.0619859
      ],
      [
       72.885577,
       19.0625752
      ],
      [
       72.8848534,
       19.0631271
      ],
      [
       72.8847968,
       19.0631851
      ],
      [
       72.8842687,
       19.0639176
      ],
      [
       72.8842352,
       19.0639804
      ],
      [
       72.88422,
       19.0640492
      ],
      [
       72.8842242,
       19.0641195
      ],
      [
       72.8842475,
       19.0641863
      ],
      [
       72.8842883,
       19.0642451
      ],
      [
       72.8843438,
       19.064292
      ],
      [
       72.8844103,
       19.0643237
      ],
      [
       72.8844832,
       19.064338
      ],
      [
       72.8845575,
       19.0643341
      ],
      [
       72.8846282,
       19.0643121
      ],
      [
       72.8846905,
       19.0642735
      ],
      [
       72.8847401,
       19.064221
      ],
      [
       72.8852444,
       19.0635215
      ]
     ]
    ]
   },
   "properties": {
    "drainId": "16",
    "name": "Ditch section 16",
    "waterway": "ditch",
    "osmId": null,
    "lengthM": 295.7,
    "widthM": 2.0,
    "depthM": 1.0,
    "bufferM": 30.0,
    "claimedTonnes": 75,
    "plausibleMaxTonnes": 993.6,
    "synthetic": true
   }
  },
  {
   "type": "Feature",
   "geometry": {
    "type": "Polygon",
    "coordinates": [
     [
      [
       72.8900975,
       19.0650003
      ],
      [
       72.8910241,
       19.0638198
      ],
      [
       72.8920517,
       19.0626553
      ],
      [
       72.8920915,
       19.0625959
      ],
      [
       72.8921137,
       19.0625287
      ],
      [
       72.8921167,
       19.0624584
      ],
      [
       72.8921004,
       19.0623898
      ],
      [
       72.8920658,
       19.0623275
      ],
      [
       72.8920153,
       19.0622757
      ],
      [
       72.8919524,
       19.0622381
      ],
      [
       72.8918814,
       19.0622172
      ],
      [
       72.891807,
       19.0622143
      ],
      [
       72.8917344,
       19.0622297
      ],
      [
       72.8916684,
       19.0622624
      ],
      [
       72.8916137,
       19.0623101
      ],
      [
       72.8905809,
       19.0634805
      ],
      [
       72.8905709,
       19.0634925
      ],
      [
       72.8896101,
       19.0647165
      ],
      [
       72.8895664,
       19.0647984
      ],
      [
       72.8890956,
       19.066256
      ],
      [
       72.8890833,
       19.0663254
      ],
      [
       72.8890905,
       19.0663954
      ],
      [
       72.8891166,
       19.0664613
      ],
      [
       72.8891598,
       19.0665186
      ],
      [
       72.8892173,
       19.0665633
      ],
      [
       72.889285,
       19.0665925
      ],
      [
       72.8893585,
       19.066604
      ],
      [
       72.8894326,
       19.0665973
      ],
      [
       72.8895023,
       19.0665726
      ],
      [
       72.8895629,
       19.0665317
      ],
      [
       72.8896102,
       19.0664774
      ],
      [
       72.889641,
       19.0664134
      ],
      [
       72.8900975,
       19.0650003
      ]
     ]
    ]
   },
   "properties": {
    "drainId": "17",
    "name": "Canal section 17",
    "waterway": "canal",
    "osmId": null,
    "lengthM": 508.4,
    "widthM": 2.0,
    "depthM": 1.2,
    "bufferM": 30.0,
    "claimedTonnes": 42,
    "plausibleMaxTonnes": 2049.9,
    "synthetic": true
   }
  },
  {
   "type": "Feature",
   "geometry": {
    "type": "Polygon",
    "coordinates": [
     [
      [
       72.8865875,
       19.0718125
      ],
      [
       72.8874641,
       19.0708915
      ],
      [
       72.8874892,
       19.070861
      ],
      [
       72.8882407,
       19.0697977
      ],
      [
       72.8882736,
       19.0697346
      ],
      [
       72.8882881,
       19.0696656
      ],
      [
       72.8882833,
       19.0695954
      ],
      [
       72.8882593,
       19.0695288
      ],
      [
       72.888218,
       19.0694703
      ],
      [
       72.888162,
       19.0694239
      ],
      [
       72.8880952,
       19.0693928
      ],
      [
       72.8880222,
       19.0693791
      ],
      [
       72.8879479,
       19.0693837
      ],
      [
       72.8878774,
       19.0694063
      ],
      [
       72.8878156,
       19.0694454
      ],
      [
       72.8877665,
       19.0694983
      ],
      [
       72.8870264,
       19.0705455
      ],
      [
       72.8861352,
       19.0714818
      ],
      [
       72.886089,
       19.0715477
      ],
      [
       72.8855151,
       19.0727056
      ],
      [
       72.8854926,
       19.0727726
      ],
      [
       72.8854892,
       19.0728429
      ],
      [
       72.8855052,
       19.0729116
      ],
      [
       72.8855394,
       19.0729741
      ],
      [
       72.8855896,
       19.073026
      ],
      [
       72.8856523,
       19.0730639
      ],
      [
       72.8857233,
       19.0730852
      ],
      [
       72.8857977,
       19.0730884
      ],
      [
       72.8858704,
       19.0730733
      ],
      [
       72.8859365,
       19.0730409
      ],
      [
       72.8859914,
       19.0729935
      ],
      [
       72.8860315,
       19.0729342
      ],
      [
       72.8865875,
       19.0718125
      ]
     ]
    ]
   },
   "properties": {
    "drainId": "18",
    "name": "Canal section 18",
    "waterway": "canal",
    "osmId": null,
    "lengthM": 426.6,
    "widthM": 2.5,
    "depthM": 1.0,
    "bufferM": 30.0,
    "claimedTonnes": 65,
    "plausibleMaxTonnes": 1791.7,
    "synthetic": true
   }
  }
 ],
 "properties": {
  "billId": "B1",
  "center": [
   72.8777,
   19.076
  ],
  "bbox": [
   19.058034,
   72.85869,
   19.093966,
   72.89671
  ],
  "bufferM": 30.0,
  "source": "synthetic",
  "note": "Synthetic geometry for offline testing. Not real drains."
 }
}